{
    "links": {
        "self": "http://www.neowsapp.com/rest/v1/neo/3827129?api_key=iIulBulltgU6a56xZRHN4H3l9WmuAYTsLGpBGhQ2"
    },
    "id": "3827129",
    "neo_reference_id": "3827129",
    "name": "(2018 OF2)",
    "designation": "2018 OF2",
    "nasa_jpl_url": "http://ssd.jpl.nasa.gov/sbdb.cgi?sstr=3827129",
    "absolute_magnitude_h": 27.363,
    "estimated_diameter": {
        "kilometers": {
            "estimated_diameter_min": 0.0089527195,
            "estimated_diameter_max": 0.0200188893
        },
        "meters": {
            "estimated_diameter_min": 8.9527194772,
            "estimated_diameter_max": 20.0188893345
        },
        "miles": {
            "estimated_diameter_min": 0.0055629603,
            "estimated_diameter_max": 0.0124391573
        },
        "feet": {
            "estimated_diameter_min": 29.3724401696,
            "estimated_diameter_max": 65.6787728843
        }
    },
    "is_potentially_hazardous_asteroid": false,
    "close_approach_data": [
        {
            "close_approach_date": "2018-07-24",
            "close_approach_date_full": "2018-Jul-24 07:55",
            "epoch_date_close_approach": 1532418900000,
            "relative_velocity": {
                "kilometers_per_second": "11.9651765532",
                "kilometers_per_hour": "43074.635591489",
                "miles_per_hour": "26764.9034318338"
            },
            "miss_distance": {
                "astronomical": "0.0007134091",
                "lunar": "0.2775161399",
                "kilometers": "106724.481798617",
                "miles": "66315.5178982346"
            },
            "orbiting_body": "Moon"
        },
        {
            "close_approach_date": "2018-07-24",
            "close_approach_date_full": "2018-Jul-24 10:49",
            "epoch_date_close_approach": 1532429340000,
            "relative_velocity": {
                "kilometers_per_second": "11.9102234885",
                "kilometers_per_hour": "42876.8045587375",
                "miles_per_hour": "26641.9789215111"
            },
            "miss_distance": {
                "astronomical": "0.0029401599",
                "lunar": "1.1437222011",
                "kilometers": "439841.658499413",
                "miles": "273304.9332733794"
            },
            "orbiting_body": "Earth"
        }
    ],
    "orbital_data": {
        "orbit_id": "1",
        "orbit_determination_date": "2018-08-30 06:52:17",
        "first_observation_date": "2018-07-23",
        "last_observation_date": "2018-07-23",
        "data_arc_in_days": null,
        "observations_used": 17,
        "orbit_uncertainty": "9",
        "minimum_orbit_intersection": ".00264887",
        "jupiter_tisserand_invariant": "4.836",
        "epoch_osculation": "2458322.5",
        "eccentricity": ".250757191507601",
        "semi_major_axis": "1.327451015693901",
        "inclination": "20.48498344768639",
        "ascending_node_longitude": "121.0655453720527",
        "orbital_period": "558.632480300445",
        "perihelion_distance": ".9945831271345861",
        "perihelion_argument": "208.0398424526346",
        "aphelion_distance": "1.660318904253216",
        "perihelion_time": "2458349.474172056808",
        "mean_anomaly": "342.6170115722089",
        "mean_motion": ".6444308426291002",
        "equinox": "J2000",
        "orbit_class": {
            "orbit_class_type": "APO",
            "orbit_class_description": "Near-Earth asteroid orbits which cross the Earth’s orbit similar to that of 1862 Apollo",
            "orbit_class_range": "a (semi-major axis) > 1.0 AU; q (perihelion) < 1.017 AU"
        }
    },
    "is_sentry_object": false
}